ordinal{string},comment{string},originator{string},norad_cat_id{string},object_name{string},object_type{string},classification_type{string},intldes{string},epoch{timestamp},epoch_microseconds{integer},mean_motion{decimal},eccentricity{decimal},inclination{decimal},ra_of_asc_node{decimal},arg_of_pericenter{decimal},mean_anomaly{decimal},ephemeris_type{string},element_set_no{string},rev_at_epoch{integer},bstar{decimal},mean_motion_dot{decimal},mean_motion_ddot{string},file{string},tle_line0{string},tle_line1{string},tle_line2{string},object_id{string},object_number{string},semimajor_axis{decimal},period{decimal},apogee{decimal},perigee{decimal}
1,GENERATED VIA SPACETRACK.ORG API,JSPOC,8289,COSMOS 765,PAYLOAD,U,75086E,2019-02-21T22:58:02Z,680608,12.3825208700000005,0.00456610000000000002,74.0130000000000052,347.498800000000017,0.937599999999999989,64.5908000000000015,0,999,96329,4.9493000000000002e-05,-8.99999999999999986e-08,0,2414564,0 COSMOS 765,1  8289U 75086E   19052.95697547 -.00000009 +00000-0 +49493-4 0  9995,2  8289 074.0130 347.4988 0045661 000.9376 064.5908 12.38252087963293,1975-086E,8289,7892.15800000000036,116.292000000000002,1550.05899999999997,1477.98700000000008
1,GENERATED VIA SPACETRACK.ORG API,JSPOC,9011,COSMOS 839,PAYLOAD,U,76067A,2019-02-21T22:58:12Z,544032,12.3283304099999995,0.0710071000000000035,65.855000000000004,28.5850000000000009,244.681600000000003,107.901499999999999,0,999,93070,-0.00010315,-8.50000000000000014e-07,0,2414564,0 COSMOS 839,1  9011U 76067A   19052.95708963 -.00000085 +00000-0 -10315-3 0  9999,2  9011 065.8550 028.5850 0710071 244.6816 107.9015 12.32833041930706,1976-067A,9011,7915.26800000000003,116.804000000000002,2099.17399999999998,975.092999999999961
1,GENERATED VIA SPACETRACK.ORG API,JSPOC,23323,IRS P2,PAYLOAD,U,94068A,2019-02-21T22:59:11Z,931072,14.2376319799999997,0.000101700000000000005,98.8693999999999988,14.4133999999999993,84.1508999999999929,275.978499999999997,0,999,26494,1.44649999999999996e-05,-1.19999999999999989e-07,0,2414334,0 IRS P2,1 23323U 94068A   19052.95777698 -.00000012  00000-0  14465-4 0  9993,2 23323  98.8694  14.4134 0001017  84.1509 275.9785 14.23763198264944,1994-068A,23323,7190.78999999999996,101.140000000000001,813.386999999999944,811.923999999999978
1,GENERATED VIA SPACETRACK.ORG API,JSPOC,23448,RADUGA 32,PAYLOAD,U,94087A,2019-02-21T22:59:27Z,291264,1.00273959999999995,0.000697499999999999986,14.7284000000000006,12.8605999999999998,248.994100000000003,304.606200000000001,0,999,10614,0,-7.80000000000000049e-07,0,2414243,0 RADUGA 32,1 23448U 94087A   19052.95795476 -.00000078  00000-0  00000+0 0  9993,2 23448  14.7284  12.8606 0006975 248.9941 304.6062  1.00273960106147,1994-087A,23448,42164.122000000003,1436.06500000000005,35815.3960000000006,35756.5769999999975
1,GENERATED VIA SPACETRACK.ORG API,JSPOC,19908,COSMOS 2014,PAYLOAD,U,89025G,2019-02-21T22:59:32Z,488224,12.4624730600000007,0.00125840000000000001,74.0130000000000052,0.766599999999999948,172.313999999999993,254.138499999999993,0,999,36092,-4.27579999999999979e-06,-1.60000000000000003e-07,0,2414564,0 COSMOS 2014,1 19908U 89025G   19052.95801491 -.00000016 +00000-0 -42758-5 0  9995,2 19908 074.0130 000.7666 0012584 172.3140 254.1385 12.46247306360920,1989-025G,19908,7858.36700000000019,115.546000000000006,1490.12100000000009,1470.34300000000007
1,GENERATED VIA SPACETRACK.ORG API,JSPOC,42831,FLYING LAPTOP,PAYLOAD,U,17042G,2019-02-21T22:59:47Z,157216,14.9095650200000005,0.00156930000000000004,97.5785000000000053,310.651299999999992,88.9265000000000043,271.375200000000007,0,999,8754,8.49899999999999943e-06,3.09999999999999997e-07,0,2414564,0 FLYING LAPTOP,1 42831U 17042G   19052.95818469 +.00000031 +00000-0 +84990-5 0  9998,2 42831 097.5785 310.6513 0015693 088.9265 271.3752 14.90956502087544,2017-042G,42831,6973.08799999999974,96.5819999999999936,605.895999999999958,584.009999999999991
1,GENERATED VIA SPACETRACK.ORG API,JSPOC,902,CALSPHERE 2,PAYLOAD,U,64063E,2019-02-21T22:59:51Z,17568,13.5266927399999997,0.00201499999999999986,90.1557999999999993,23.2282000000000011,66.7685000000000031,357.096000000000004,0,999,49499,3.88250000000000018e-05,3.49999999999999984e-07,0,2414564,0 CALSPHERE 2,1   902U 64063E   19052.95822937 +.00000035 +00000-0 +38825-4 0  9990,2   902 090.1558 023.2282 0020150 066.7685 357.0960 13.52669274494996,1964-063E,902,7440.59000000000015,106.456000000000003,1077.44800000000009,1047.46299999999997
1,GENERATED VIA SPACETRACK.ORG API,JSPOC,25944,GLOBALSTAR M059,PAYLOAD,U,99058B,2019-02-21T23:00:05Z,100768,11.9993285600000004,0.000134200000000000009,52.0039000000000016,328.610000000000014,71.2767000000000053,9.14789999999999992,0,999,29706,0.00023797,-6.70000000000000044e-07,0,2414564,0 GLOBALSTAR M059,1 25944U 99058B   19052.95839237 -.00000067 +00000-0 +23797-3 0  9993,2 25944 052.0039 328.6100 0001342 071.2767 009.1479 11.99932856297062,1999-058B,25944,8059.29699999999957,120.006,1682.24399999999991,1680.0809999999999
1,GENERATED VIA SPACETRACK.ORG API,JSPOC,13595,INTELSAT 505,PAYLOAD,U,82097A,2019-02-21T23:00:35Z,53056,0.984062919999999952,0.00280569999999999995,15.0824999999999996,352.377999999999986,339.218500000000006,201.060399999999987,0,999,10173,0,-8.40000000000000004e-07,0,2414564,0 INTELSAT 505,1 13595U 82097A   19052.95873904 -.00000084 +00000-0 +00000-0 0  9994,2 13595 015.0825 352.3780 0028057 339.2185 201.0604 00.98406292101732,1982-097A,13595,42695.9409999999989,1463.32099999999991,36437.5979999999981,36198.0140000000029
1,GENERATED VIA SPACETRACK.ORG API,JSPOC,5550,COSMOS 447,PAYLOAD,U,71086D,2019-02-21T23:00:57Z,557664,12.5057836699999996,0.00657399999999999998,74.0255999999999972,264.696000000000026,24.0226000000000006,86.8135000000000048,0,999,16212,3.92170000000000008e-05,-9.99999999999999955e-08,0,2414564,0 COSMOS 447,1  5550U 71086D   19052.95899951 -.00000010 +00000-0 +39217-4 0  9997,2  5550 074.0256 264.6960 0065740 024.0226 086.8135 12.50578367162129,1971-086D,5550,7840.21299999999974,115.146000000000001,1513.61999999999989,1410.53700000000003
1,GENERATED VIA SPACETRACK.ORG API,JSPOC,23943,APSTAR 1A,PAYLOAD,U,96039A,2019-02-21T23:01:42Z,960000,0.991876760000000024,0.00267579999999999988,9.78289999999999971,35.9082000000000008,286.897299999999973,252.02600000000001,0,999,8271,0,1.19999999999999989e-07,0,2414297,0 APSTAR 1A,1 23943U 96039A   19052.95952500  .00000012  00000-0  00000+0 0  9992,2 23943   9.7829  35.9082 0026758 286.8973 252.0260  0.99187676 82714,1996-039A,23943,42471.4110000000001,1451.79299999999989,36206.9210000000021,35979.6310000000012
1,GENERATED VIA SPACETRACK.ORG API,JSPOC,28376,AURA,PAYLOAD,U,04026A,2019-02-21T23:01:47Z,230752,14.5710414299999993,0.000136999999999999996,98.2236999999999938,357.690899999999999,63.5259,296.607899999999972,0,999,77680,1.94889999999999992e-05,4.20000000000000002e-07,0,2414564,0 AURA,1 28376U 04026A   19052.95957443 +.00000042 +00000-0 +19489-4 0  9992,2 28376 098.2237 357.6909 0001370 063.5259 296.6079 14.57104143776806,2004-026A,28376,7080.67600000000039,98.8259999999999934,703.510999999999967,701.571000000000026
1,GENERATED VIA SPACETRACK.ORG API,JSPOC,38337,GCOM W1,PAYLOAD,U,12025A,2019-02-21T23:02:10Z,640832,14.5711221799999997,0.000143599999999999994,98.2297999999999973,354.621699999999976,48.8941999999999979,353.000900000000001,0,999,35988,1.68860000000000006e-05,3.09999999999999997e-07,0,2414236,0 GCOM W1,1 38337U 12025A   19052.95984538  .00000031  00000-0  16886-4 0  9999,2 38337  98.2298 354.6217 0001436  48.8942 353.0009 14.57112218359886,2012-025A,38337,7080.64999999999964,98.8250000000000028,703.532000000000039,701.498000000000047
1,GENERATED VIA SPACETRACK.ORG API,JSPOC,15000,COSMOS 1561,PAYLOAD,U,84052C,2019-02-21T23:02:17Z,670336,12.4794820400000006,0.00157719999999999996,74.0151000000000039,332.373800000000017,288.18689999999998,151.105799999999988,0,999,58236,9.52230000000000063e-05,-2.00000000000000004e-08,0,2414564,0 COSMOS 1561,1 15000U 84052C   19052.95992674 -.00000002 +00000-0 +95223-4 0  9991,2 15000 074.0151 332.3738 0015772 288.1869 151.1058 12.47948204582365,1984-052C,15000,7851.22500000000036,115.388999999999996,1485.47299999999996,1460.70700000000011
1,GENERATED VIA SPACETRACK.ORG API,JSPOC,26394,COSMOS 2371,PAYLOAD,U,00036A,2019-02-21T23:02:20Z,645952,1.00276991999999998,0.000344300000000000021,12.4235000000000007,27.4084000000000003,324.592399999999998,224.710599999999999,0,999,6823,0,-1.6700000000000001e-06,0,2414291,0 COSMOS 2371,1 26394U 00036A   19052.95996118 -.00000167  00000-0  00000+0 0  9992,2 26394  12.4235  27.4084 0003443 324.5924 224.7106  1.00276992 68238,2000-036A,26394,42163.2719999999972,1436.02199999999993,35799.6540000000023,35770.6200000000026
1,GENERATED VIA SPACETRACK.ORG API,JSPOC,6265,COSMOS 530,PAYLOAD,U,72087C,2019-02-21T23:02:47Z,201856,12.6562385499999994,0.00873920000000000079,74.0382000000000033,354.556899999999985,198.540099999999995,226.126200000000011,0,999,13949,8.72750000000000072e-06,-1.49999999999999993e-07,0,2414564,0 COSMOS 530,1  6265U 72087C   19052.96026854 -.00000015 +00000-0 +87275-5 0  9991,2  6265 074.0382 354.5569 0087392 198.5401 226.1262 12.65623855139499,1972-087C,6265,7777.95399999999972,113.777000000000001,1467.79199999999992,1331.846
1,GENERATED VIA SPACETRACK.ORG API,JSPOC,1586,COSMOS 88,PAYLOAD,U,65073C,2019-02-21T23:03:11Z,579616,12.4331260199999996,0.0186720000000000011,56.0617000000000019,308.518399999999986,209.015600000000006,257.196199999999976,0,999,42628,0.000145279999999999991,-7.19999999999999989e-07,0,2414564,0 COSMOS 88,1  1586U 65073C   19052.96055069 -.00000072 +00000-0 +14528-3 0  9991,2  1586 056.0617 308.5184 0186720 209.0156 257.1962 12.43312602426281,1965-073C,1586,7870.72800000000007,115.819000000000003,1639.55600000000004,1345.63100000000009
